{
  "type": "FeatureCollection",
  "features": [
    {
      "type": "Feature",
      "properties": {
        "norad_id": 33791,
        "name": "COSMOS 2251 DEB",
        "group": "cosmos-2251-debris",
        "lat": -34.79404415966723,
        "lon": -146.56608472348174,
        "alt_km": 732.3985977137781,
        "timestamp": "2025-12-21T03:56:51.225508+00:00",
        "meta_object_name": "COSMOS 2251 DEB",
        "meta_object_id": "1993-036AG",
        "meta_epoch": "2025-12-20T10:56:03.915168",
        "meta_mean_motion": 14.43160953,
        "meta_eccentricity": 0.00302581,
        "meta_inclination": 74.1746,
        "meta_ra_of_asc_node": 23.3721,
        "meta_arg_of_pericenter": 219.1638,
        "meta_mean_anomaly": 275.7231,
        "meta_ephemeris_type": 0,
        "meta_classification_type": "U",
        "meta_norad_cat_id": 33791,
        "meta_element_set_no": 999,
        "meta_rev_at_epoch": 88163,
        "meta_bstar": 0.00056842955,
        "meta_mean_motion_dot": 1.895e-05,
        "meta_mean_motion_ddot": 0,
        "tle_line1": "1 33791U 93036AG  25354.45560087  .00001895  00000+0  56843-3 0  9999",
        "tle_line2": "2 33791  74.1746  23.3721 0030258 219.1638 275.7231 14.43160953881639"
      },
      "geometry": {
        "type": "Point",
        "coordinates": [
          -146.56608472348174,
          -34.79404415966723
        ]
      }
    },
    {
      "type": "Feature",
      "properties": {
        "norad_id": 33792,
        "name": "COSMOS 2251 DEB",
        "group": "cosmos-2251-debris",
        "lat": -17.30315435201675,
        "lon": 157.05222588160547,
        "alt_km": 1396.0163260540085,
        "timestamp": "2025-12-21T03:56:51.225518+00:00",
        "meta_object_name": "COSMOS 2251 DEB",
        "meta_object_id": "1993-036AH",
        "meta_epoch": "2025-12-20T09:40:11.752320",
        "meta_mean_motion": 13.45835909,
        "meta_eccentricity": 0.0427519,
        "meta_inclination": 73.9011,
        "meta_ra_of_asc_node": 333.1064,
        "meta_arg_of_pericenter": 36.3499,
        "meta_mean_anomaly": 71.6407,
        "meta_ephemeris_type": 0,
        "meta_classification_type": "U",
        "meta_norad_cat_id": 33792,
        "meta_element_set_no": 999,
        "meta_rev_at_epoch": 82545,
        "meta_bstar": 0.00081896242,
        "meta_mean_motion_dot": 8.29e-06,
        "meta_mean_motion_ddot": 0,
        "tle_line1": "1 33792U 93036AH  25354.40291380  .00000829  00000+0  81896-3 0  9994",
        "tle_line2": "2 33792  73.9011 333.1064 0427519  36.3499  71.6407 13.45835909825455"
      },
      "geometry": {
        "type": "Point",
        "coordinates": [
          157.05222588160547,
          -17.30315435201675
        ]
      }
    },
    {
      "type": "Feature",
      "properties": {
        "norad_id": 33793,
        "name": "COSMOS 2251 DEB",
        "group": "cosmos-2251-debris",
        "lat": -5.494076173112527,
        "lon": 133.02219477462398,
        "alt_km": 784.0700276983498,
        "timestamp": "2025-12-21T03:56:51.225528+00:00",
        "meta_object_name": "COSMOS 2251 DEB",
        "meta_object_id": "1993-036AJ",
        "meta_epoch": "2025-12-20T20:16:45.949728",
        "meta_mean_motion": 14.27747188,
        "meta_eccentricity": 0.0078805,
        "meta_inclination": 73.9805,
        "meta_ra_of_asc_node": 135.1862,
        "meta_arg_of_pericenter": 283.6954,
        "meta_mean_anomaly": 228.2782,
        "meta_ephemeris_type": 0,
        "meta_classification_type": "U",
        "meta_norad_cat_id": 33793,
        "meta_element_set_no": 999,
        "meta_rev_at_epoch": 87322,
        "meta_bstar": 0.00049354,
        "meta_mean_motion_dot": 1.233e-05,
        "meta_mean_motion_ddot": 0,
        "tle_line1": "1 33793U 93036AJ  25354.84497627  .00001233  00000+0  49354-3 0  9998",
        "tle_line2": "2 33793  73.9805 135.1862 0078805 283.6954 228.2782 14.27747188873222"
      },
      "geometry": {
        "type": "Point",
        "coordinates": [
          133.02219477462398,
          -5.494076173112527
        ]
      }
    },
    {
      "type": "Feature",
      "properties": {
        "norad_id": 33795,
        "name": "COSMOS 2251 DEB",
        "group": "cosmos-2251-debris",
        "lat": 37.31749858092396,
        "lon": -133.14670040473933,
        "alt_km": 524.9762611695442,
        "timestamp": "2025-12-21T03:56:51.225537+00:00",
        "meta_object_name": "COSMOS 2251 DEB",
        "meta_object_id": "1993-036AL",
        "meta_epoch": "2025-12-20T13:28:45.519744",
        "meta_mean_motion": 15.05758745,
        "meta_eccentricity": 0.0030539,
        "meta_inclination": 74.0325,
        "meta_ra_of_asc_node": 60.6962,
        "meta_arg_of_pericenter": 141.421,
        "meta_mean_anomaly": 332.9247,
        "meta_ephemeris_type": 0,
        "meta_classification_type": "U",
        "meta_norad_cat_id": 33795,
        "meta_element_set_no": 999,
        "meta_rev_at_epoch": 90139,
        "meta_bstar": 0.00075203,
        "meta_mean_motion_dot": 0.00010982,
        "meta_mean_motion_ddot": 0,
        "tle_line1": "1 33795U 93036AL  25354.56163796  .00010982  00000+0  75203-3 0  9999",
        "tle_line2": "2 33795  74.0325  60.6962 0030539 141.4210 332.9247 15.05758745901391"
      },
      "geometry": {
        "type": "Point",
        "coordinates": [
          -133.14670040473933,
          37.31749858092396
        ]
      }
    },
    {
      "type": "Feature",
      "properties": {
        "norad_id": 33797,
        "name": "COSMOS 2251 DEB",
        "group": "cosmos-2251-debris",
        "lat": -45.85808261419118,
        "lon": 1.8052022410380768,
        "alt_km": 744.3345020199449,
        "timestamp": "2025-12-21T03:56:51.225557+00:00",
        "meta_object_name": "COSMOS 2251 DEB",
        "meta_object_id": "1993-036AN",
        "meta_epoch": "2025-12-20T12:25:47.436960",
        "meta_mean_motion": 14.57872642,
        "meta_eccentricity": 0.00604185,
        "meta_inclination": 74.0465,
        "meta_ra_of_asc_node": 20.1764,
        "meta_arg_of_pericenter": 105.6829,
        "meta_mean_anomaly": 54.405,
        "meta_ephemeris_type": 0,
        "meta_classification_type": "U",
        "meta_norad_cat_id": 33797,
        "meta_element_set_no": 999,
        "meta_rev_at_epoch": 89098,
        "meta_bstar": 0.00025744704,
        "meta_mean_motion_dot": 1.179e-05,
        "meta_mean_motion_ddot": 0,
        "tle_line1": "1 33797U 93036AN  25354.51791015  .00001179  00000+0  25745-3 0  9991",
        "tle_line2": "2 33797  74.0465  20.1764 0060418 105.6829  54.4050 14.57872642890985"
      },
      "geometry": {
        "type": "Point",
        "coordinates": [
          1.8052022410380768,
          -45.85808261419118
        ]
      }
    },
    {
      "type": "Feature",
      "properties": {
        "norad_id": 33798,
        "name": "COSMOS 2251 DEB",
        "group": "cosmos-2251-debris",
        "lat": 29.471173294545043,
        "lon": -69.1000808807847,
        "alt_km": 741.5621018838729,
        "timestamp": "2025-12-21T03:56:51.225567+00:00",
        "meta_object_name": "COSMOS 2251 DEB",
        "meta_object_id": "1993-036AP",
        "meta_epoch": "2025-12-20T19:41:37.737024",
        "meta_mean_motion": 14.44623622,
        "meta_eccentricity": 0.0092396,
        "meta_inclination": 74.0291,
        "meta_ra_of_asc_node": 120.8538,
        "meta_arg_of_pericenter": 240.4709,
        "meta_mean_anomaly": 281.9032,
        "meta_ephemeris_type": 0,
        "meta_classification_type": "U",
        "meta_norad_cat_id": 33798,
        "meta_element_set_no": 999,
        "meta_rev_at_epoch": 88710,
        "meta_bstar": 0.00012389,
        "meta_mean_motion_dot": 4.22e-06,
        "meta_mean_motion_ddot": 0,
        "tle_line1": "1 33798U 93036AP  25354.82057566  .00000422  00000+0  12389-3 0  9992",
        "tle_line2": "2 33798  74.0291 120.8538 0092396 240.4709 281.9032 14.44623622887100"
      },
      "geometry": {
        "type": "Point",
        "coordinates": [
          -69.1000808807847,
          29.471173294545043
        ]
      }
    },
    {
      "type": "Feature",
      "properties": {
        "norad_id": 33799,
        "name": "COSMOS 2251 DEB",
        "group": "cosmos-2251-debris",
        "lat": 14.687706014128008,
        "lon": 69.5021969969438,
        "alt_km": 638.1020297315617,
        "timestamp": "2025-12-21T03:56:51.225577+00:00",
        "meta_object_name": "COSMOS 2251 DEB",
        "meta_object_id": "1993-036AQ",
        "meta_epoch": "2025-12-20T15:34:25.440384",
        "meta_mean_motion": 14.7971053,
        "meta_eccentricity": 0.0022681,
        "meta_inclination": 74.0323,
        "meta_ra_of_asc_node": 66.2129,
        "meta_arg_of_pericenter": 134.0655,
        "meta_mean_anomaly": 16.259,
        "meta_ephemeris_type": 0,
        "meta_classification_type": "U",
        "meta_norad_cat_id": 33799,
        "meta_element_set_no": 999,
        "meta_rev_at_epoch": 88928,
        "meta_bstar": 0.0007022,
        "meta_mean_motion_dot": 5.269e-05,
        "meta_mean_motion_ddot": 0,
        "tle_line1": "1 33799U 93036AQ  25354.64890556  .00005269  00000+0  70220-3 0  9999",
        "tle_line2": "2 33799  74.0323  66.2129 0022681 134.0655  16.2590 14.79710530889286"
      },
      "geometry": {
        "type": "Point",
        "coordinates": [
          69.5021969969438,
          14.687706014128008
        ]
      }
    }
  ]
}